OBJECT_NAME,OBJECT_ID,EPOCH,MEAN_MOTION,ECCENTRICITY,INCLINATION,RA_OF_ASC_NODE,ARG_OF_PERICENTER,MEAN_ANOMALY,EPHEMERIS_TYPE,CLASSIFICATION_TYPE,NORAD_CAT_ID,ELEMENT_SET_NO,REV_AT_EPOCH,BSTAR,MEAN_MOTION_DOT,MEAN_MOTION_DDOT
2021-091D,2021-091D,2026-07-18T06:48:17.949312,14.00146861,.00098929,97.4489,226.3195,239.6983,120.3208,0,U,49318,999,25243,.22591961E-3,.302E-5,0
SHIJIAN-21 (SJ-21),2021-094A,2026-07-18T07:46:03.226944,1.00276700,.00515434,5.1850,60.9904,168.9422,310.6676,0,U,49330,999,567,0,-.357E-5,0
SES-17,2021-095A,2026-07-18T06:03:48.757824,1.00269923,.00009032,0.0233,50.4660,63.5755,205.8645,0,U,49332,999,1816,0,-.28E-5,0
SYRACUSE 4A,2021-095B,2026-07-17T23:45:19.118304,1.00270419,.00016587,0.0194,65.4199,48.4658,223.7650,0,U,49333,999,1825,0,0,0
QZS-1R (MICHIBIKI-1R),2021-096A,2026-07-17T13:39:38.744352,1.00244494,.0755353,37.5223,79.1315,272.2799,280.3110,0,U,49336,999,1731,0,-.311E-5,0
JILIN-1 GAOFEN 2F,2021-097A,2026-07-18T06:59:08.735712,15.07962522,.00199677,97.6740,325.4231,119.8817,240.4398,0,U,49338,999,26100,.1518733E-3,.2279E-4,0
YAOGAN-32 02A,2021-099A,2026-07-18T07:57:16.693344,14.64245043,.00024869,98.2509,333.1869,106.7363,253.4112,0,U,49383,999,25092,.63083842E-4,.284E-5,0
YAOGAN-32 02B,2021-099B,2026-07-18T07:57:08.569152,14.64247535,.00017307,98.2504,333.1944,109.8538,250.2851,0,U,49384,999,25092,.68672366E-4,.313E-5,0
SDGSAT 1,2021-100A,2026-07-18T07:40:16.330944,15.19248426,.00100874,97.2610,245.0785,152.8502,207.3262,0,U,49387,999,26064,.91998742E-4,.1875E-4,0
YAOGAN-35 01A,2021-101A,2026-07-18T00:43:45.098976,15.26967128,.00070951,34.9877,80.7936,295.4810,64.5171,0,U,49390,999,26159,.16749843E-3,.4514E-4,0
YAOGAN-35 01C,2021-101D,2026-07-18T00:23:41.540928,15.23241111,.00060935,35.0049,70.9313,310.3543,49.6639,0,U,49393,999,26171,.22059587E-3,.5321E-4,0
TEIKYOSAT-4 (OORURI),2021-102B,2026-07-18T01:50:06.010080,15.09604772,.00120119,97.3661,227.3592,178.6740,181.4524,0,U,49396,999,25738,.59759709E-4,.901E-5,0
RAISE 2,2021-102C,2026-07-18T00:38:45.424896,15.21830436,.00092383,97.3239,231.2308,164.5107,195.6414,0,U,49397,999,25812,.15122185E-3,.337E-4,0
Z-SAT,2021-102E,2026-07-18T07:17:23.316576,15.18477730,.00178093,97.3306,233.6837,134.5451,225.7241,0,U,49399,999,25816,.14208358E-3,.2873E-4,0
HIBARI,2021-102F,2026-07-18T02:18:01.261152,15.32314606,.00132942,97.3216,244.6558,92.6447,267.6317,0,U,49400,999,25892,.19659312E-3,.6072E-4,0
DRUMS,2021-102G,2026-07-18T01:38:40.704288,15.20750229,.00168084,97.3279,235.3165,121.9928,238.2944,0,U,49401,999,25827,.12764038E-3,.2751E-4,0
KOSEN-1,2021-102H,2026-07-18T01:42:06.096960,15.27238111,.0015453,97.3167,240.6335,98.6524,261.6467,0,U,49402,999,25873,.16013866E-3,.4215E-4,0
STARLINK-3075,2021-104B,2026-07-18T03:34:36.199776,15.33537452,.00008991,53.1612,0.3432,89.7773,270.3332,0,U,49409,999,25837,.4955193E-5,-.209E-5,0
STARLINK-3147,2021-104C,2026-07-18T08:00:01.999872,15.31681914,.00011771,53.1586,359.5560,79.2778,221.7126,0,U,49410,999,565,.17560662E-2,.54496E-3,0
STARLINK-3162,2021-104D,2026-07-18T08:00:01.999872,15.23223650,.00019013,53.1608,351.8439,74.7113,164.8803,0,U,49411,999,565,.33190567E-2,.80116E-3,0
STARLINK-3157,2021-104F,2026-07-18T08:00:01.999872,15.28981368,.00018461,53.1612,351.3727,84.1726,58.4536,0,U,49413,999,580,.28253555E-2,.81126E-3,0
STARLINK-3146,2021-104G,2026-07-18T08:00:01.999872,15.27027814,.0001266,53.1586,1.1997,84.6066,111.4543,0,U,49414,999,580,.30154937E-2,.8159E-3,0
STARLINK-3159,2021-104H,2026-07-18T08:00:01.999872,15.29048539,.00022122,53.1612,351.3274,89.1951,96.7202,0,U,49415,999,571,.27638665E-2,.795E-3,0
STARLINK-3133,2021-104J,2026-07-18T08:00:01.999872,15.29454628,.00019547,53.1606,1.3767,84.4053,60.0310,0,U,49416,999,580,.28769163E-2,.83858E-3,0
STARLINK-3154,2021-104K,2026-07-18T08:00:01.999872,15.22828932,.00014772,53.1596,351.1628,12.5757,279.4696,0,U,49417,999,580,.36065773E-2,.86141E-3,0
STARLINK-3111,2021-104L,2026-07-18T08:00:01.999872,15.29236199,.00015551,53.1596,1.3947,86.3154,69.8078,0,U,49418,999,571,.28248713E-2,.81757E-3,0
STARLINK-3120,2021-104M,2026-07-18T08:00:01.999872,15.22803385,.00014702,53.1608,1.7185,63.9021,345.6385,0,U,49419,999,581,.3553352E-2,.84785E-3,0
STARLINK-3110,2021-104N,2026-07-18T03:43:13.190592,15.35406127,.00015757,53.1619,0.6506,93.9529,266.1654,0,U,49420,999,25835,.53103641E-4,.1472E-4,0
STARLINK-3112,2021-104P,2026-07-17T20:30:46.880064,15.31681725,.00011107,53.1612,1.7861,101.4273,258.6853,0,U,49421,999,25831,.45752316E-4,.1054E-4,0
STARLINK-3161,2021-104Q,2026-07-18T08:00:01.999872,15.26701562,.00012682,53.1611,1.6720,44.7662,7.7763,0,U,49422,999,575,.31450733E-2,.84302E-3,0
