2021-091D               
1 49318U 21091D   26199.28354108  .00000302  00000+0  22592-3 0  9993
2 49318  97.4489 226.3195 0009892 239.6983 120.3208 14.00146861252437
SHIJIAN-21 (SJ-21)      
1 49330U 21094A   26199.32364846 -.00000357  00000+0  00000+0 0  9992
2 49330   5.1850  60.9904 0051543 168.9422 310.6676  1.00276700  5678
SES-17                  
1 49332U 21095A   26199.25264766 -.00000280  00000+0  00000+0 0  9992
2 49332   0.0233  50.4660 0000903  63.5755 205.8645  1.00269923 18163
SYRACUSE 4A             
1 49333U 21095B   26198.98980461  .00000000  00000+0  00000+0 0  9998
2 49333   0.0194  65.4199 0001658  48.4658 223.7650  1.00270419 18252
QZS-1R (MICHIBIKI-1R)   
1 49336U 21096A   26198.56919843 -.00000311  00000+0  00000+0 0  9998
2 49336  37.5223  79.1315 0755353 272.2799 280.3110  1.00244494 17316
JILIN-1 GAOFEN 2F       
1 49338U 21097A   26199.29107333  .00002279  00000+0  15187-3 0  9995
2 49338  97.6740 325.4231 0019967 119.8817 240.4398 15.07962522261007
YAOGAN-32 02A           
1 49383U 21099A   26199.33144321  .00000284  00000+0  63084-4 0  9994
2 49383  98.2509 333.1869 0002486 106.7363 253.4112 14.64245043250920
YAOGAN-32 02B           
1 49384U 21099B   26199.33134918  .00000313  00000+0  68672-4 0  9997
2 49384  98.2504 333.1944 0001730 109.8538 250.2851 14.64247535250922
SDGSAT 1                
1 49387U 21100A   26199.31963346  .00001875  00000+0  91999-4 0  9998
2 49387  97.2610 245.0785 0010087 152.8502 207.3262 15.19248426260640
YAOGAN-35 01A           
1 49390U 21101A   26199.03038309  .00004514  00000+0  16750-3 0  9998
2 49390  34.9877  80.7936 0007095 295.4810  64.5171 15.26967128261592
YAOGAN-35 01C           
1 49393U 21101D   26199.01645302  .00005321  00000+0  22060-3 0  9994
2 49393  35.0049  70.9313 0006093 310.3543  49.6639 15.23241111261716
TEIKYOSAT-4 (OORURI)    
1 49396U 21102B   26199.07645845  .00000901  00000+0  59760-4 0  9993
2 49396  97.3661 227.3592 0012011 178.6740 181.4524 15.09604772257384
RAISE 2                 
1 49397U 21102C   26199.02691464  .00003370  00000+0  15122-3 0  9993
2 49397  97.3239 231.2308 0009238 164.5107 195.6414 15.21830436258123
Z-SAT                   
1 49399U 21102E   26199.30374209  .00002873  00000+0  14208-3 0  9992
2 49399  97.3306 233.6837 0017809 134.5451 225.7241 15.18477730258162
HIBARI                  
1 49400U 21102F   26199.09584793  .00006072  00000+0  19659-3 0  9992
2 49400  97.3216 244.6558 0013294  92.6447 267.6317 15.32314606258921
DRUMS                   
1 49401U 21102G   26199.06852667  .00002751  00000+0  12764-3 0  9998
2 49401  97.3279 235.3165 0016808 121.9928 238.2944 15.20750229258276
KOSEN-1                 
1 49402U 21102H   26199.07090390  .00004215  00000+0  16014-3 0  9996
2 49402  97.3167 240.6335 0015453  98.6524 261.6467 15.27238111258737
STARLINK-3075           
1 49409U 21104B   26199.14903009 -.00000209  00000+0  49552-5 0  9998
2 49409  53.1612   0.3432 0000899  89.7773 270.3332 15.33537452258378
STARLINK-3147           
1 49410U 21104C   26199.33335648  .00054496  00000+0  17561-2 0  9997
2 49410  53.1586 359.5560 0001177  79.2778 221.7126 15.31681914  5653
STARLINK-3162           
1 49411U 21104D   26199.33335648  .00080116  00000+0  33191-2 0  9993
2 49411  53.1608 351.8439 0001901  74.7113 164.8803 15.23223650  5656
STARLINK-3157           
1 49413U 21104F   26199.33335648  .00081126  00000+0  28254-2 0  9991
2 49413  53.1612 351.3727 0001846  84.1726  58.4536 15.28981368  5801
STARLINK-3146           
1 49414U 21104G   26199.33335648  .00081590  00000+0  30155-2 0  9990
2 49414  53.1586   1.1997 0001266  84.6066 111.4543 15.27027814  5803
STARLINK-3159           
1 49415U 21104H   26199.33335648  .00079500  00000+0  27639-2 0  9992
2 49415  53.1612 351.3274 0002212  89.1951  96.7202 15.29048539  5713
STARLINK-3133           
1 49416U 21104J   26199.33335648  .00083858  00000+0  28769-2 0  9999
2 49416  53.1606   1.3767 0001954  84.4053  60.0310 15.29454628  5803
STARLINK-3154           
1 49417U 21104K   26199.33335648  .00086141  00000+0  36066-2 0  9997
2 49417  53.1596 351.1628 0001477  12.5757 279.4696 15.22828932  5806
STARLINK-3111           
1 49418U 21104L   26199.33335648  .00081757  00000+0  28249-2 0  9990
2 49418  53.1596   1.3947 0001555  86.3154  69.8078 15.29236199  5712
STARLINK-3120           
1 49419U 21104M   26199.33335648  .00084785  00000+0  35534-2 0  9990
2 49419  53.1608   1.7185 0001470  63.9021 345.6385 15.22803385  5812
STARLINK-3110           
1 49420U 21104N   26199.15501378  .00001472  00000+0  53104-4 0  9994
2 49420  53.1619   0.6506 0001575  93.9529 266.1654 15.35406127258355
STARLINK-3112           
1 49421U 21104P   26198.85470926  .00001054  00000+0  45752-4 0  9991
2 49421  53.1612   1.7861 0001110 101.4273 258.6853 15.31681725258319
STARLINK-3161           
1 49422U 21104Q   26199.33335648  .00084302  00000+0  31451-2 0  9993
2 49422  53.1611   1.6720 0001268  44.7662   7.7763 15.26701562  5754
